STARLINK-30268          
1 57531U 23115L   26067.88018543 -.00002762  00000+0 -93367-4 0  9991
2 57531  43.0036   6.5067 0001480 274.3297  85.7385 15.26721238142224
2025-313BE              
1 67482U 25313BE  26068.69721505  .00077178  00000+0  26504-2 0  9996
2 67482  97.3989 145.3568 0007208 335.3714  24.7181 15.29801687  7972
